[{"OBJECT_NAME":"STARLINK-3788","OBJECT_ID":"2022-041L","EPOCH":"2026-03-09T11:47:14.859744","MEAN_MOTION":15.08833649,"ECCENTRICITY":0.00014418,"INCLINATION":53.2168,"RA_OF_ASC_NODE":110.0144,"ARG_OF_PERICENTER":67.4347,"MEAN_ANOMALY":292.6798,"EPHEMERIS_TYPE":0,"CLASSIFICATION_TYPE":"U","NORAD_CAT_ID":52271,"ELEMENT_SET_NO":999,"REV_AT_EPOCH":21433,"BSTAR":0.00010486247,"MEAN_MOTION_DOT":1.381e-5,"MEAN_MOTION_DDOT":0},{"OBJECT_NAME":"ELECTRON KICK STAGE R\/B","OBJECT_ID":"2024-172G","EPOCH":"2026-03-09T20:17:57.250464","MEAN_MOTION":14.97730495,"ECCENTRICITY":0.00502098,"INCLINATION":98.0041,"RA_OF_ASC_NODE":176.7734,"ARG_OF_PERICENTER":80.5411,"MEAN_ANOMALY":280.148,"EPHEMERIS_TYPE":0,"CLASSIFICATION_TYPE":"U","NORAD_CAT_ID":61226,"ELEMENT_SET_NO":999,"REV_AT_EPOCH":7982,"BSTAR":0.00056326684,"MEAN_MOTION_DOT":6.716e-5,"MEAN_MOTION_DDOT":0}]
